{
    "links": {
        "self": "http://www.neowsapp.com/rest/v1/neo/3838119?api_key=iIulBulltgU6a56xZRHN4H3l9WmuAYTsLGpBGhQ2"
    },
    "id": "3838119",
    "neo_reference_id": "3838119",
    "name": "(2019 CJ1)",
    "designation": "2019 CJ1",
    "nasa_jpl_url": "http://ssd.jpl.nasa.gov/sbdb.cgi?sstr=3838119",
    "absolute_magnitude_h": 25.0,
    "estimated_diameter": {
        "kilometers": {
            "estimated_diameter_min": 0.02658,
            "estimated_diameter_max": 0.0594346868
        },
        "meters": {
            "estimated_diameter_min": 26.58,
            "estimated_diameter_max": 59.4346868419
        },
        "miles": {
            "estimated_diameter_min": 0.0165160412,
            "estimated_diameter_max": 0.0369309908
        },
        "feet": {
            "estimated_diameter_min": 87.2047272,
            "estimated_diameter_max": 194.9956979785
        }
    },
    "is_potentially_hazardous_asteroid": false,
    "close_approach_data": [
        {
            "close_approach_date": "2019-01-31",
            "close_approach_date_full": "2019-Jan-31 02:34",
            "epoch_date_close_approach": 1548902040000,
            "relative_velocity": {
                "kilometers_per_second": "5.4836936177",
                "kilometers_per_hour": "19741.2970237634",
                "miles_per_hour": "12266.4742534601"
            },
            "miss_distance": {
                "astronomical": "0.0774429177",
                "lunar": "30.1252949853",
                "kilometers": "11585295.534505299",
                "miles": "7198768.8337951662"
            },
            "orbiting_body": "Earth"
        }
    ],
    "orbital_data": {
        "orbit_id": "2",
        "orbit_determination_date": "2019-02-10 06:56:55",
        "first_observation_date": "2019-02-04",
        "last_observation_date": "2019-02-09",
        "data_arc_in_days": 5,
        "observations_used": 27,
        "orbit_uncertainty": "7",
        "minimum_orbit_intersection": ".068649",
        "jupiter_tisserand_invariant": "5.748",
        "epoch_osculation": "2459000.5",
        "eccentricity": ".01644507411773402",
        "semi_major_axis": "1.071706442547152",
        "inclination": "10.37122363283",
        "ascending_node_longitude": "133.8574340717475",
        "orbital_period": "405.239890267062",
        "perihelion_distance": "1.054082150667011",
        "perihelion_argument": "11.54462267750164",
        "aphelion_distance": "1.089330734427293",
        "perihelion_time": "2458937.833901673811",
        "mean_anomaly": "55.67022383349469",
        "mean_motion": ".8883626924357129",
        "equinox": "J2000",
        "orbit_class": {
            "orbit_class_type": "AMO",
            "orbit_class_description": "Near-Earth asteroid orbits similar to that of 1221 Amor",
            "orbit_class_range": "1.017 AU < q (perihelion) < 1.3 AU"
        }
    },
    "is_sentry_object": false
}